{
  "norad_id": 68360,
  "name": "RASSVET-3 1",
  "history": [
    {
      "epoch": "2026-03-31T15:46:09.658272Z",
      "apogee_km": 322.9640815854764,
      "perigee_km": 287.19417223103846,
      "latitude_deg": 1.7798627193801372e-05,
      "longitude_deg": 34.139167112756084,
      "height_km": 295.5748593975151,
      "semi_major_axis_km": 6683.216126908257,
      "eccentricity": 0.0026761,
      "inclination_deg": 82.2962,
      "raan_deg": 99.7107,
      "arg_perigee_deg": 45.1037,
      "mean_anomaly_deg": 315.24,
      "mean_motion_rev_day": 15.89002217
    }
  ]
}